{
  "norad_id": 43152,
  "name": "ASNARO-2",
  "history": [
    {
      "epoch": "2026-03-27T10:06:16.980768Z",
      "apogee_km": 499.86482101671754,
      "perigee_km": 497.3974366120992,
      "latitude_deg": 1.5090904810637179e-05,
      "longitude_deg": 118.17936904835558,
      "height_km": 501.6876844979759,
      "semi_major_axis_km": 6876.768128814409,
      "eccentricity": 0.0001794,
      "inclination_deg": 97.4023,
      "raan_deg": 94.6062,
      "arg_perigee_deg": 88.4101,
      "mean_anomaly_deg": 271.7341,
      "mean_motion_rev_day": 15.22390939
    }
  ]
}