{"fetched_at":"2026-03-29T02:12:04Z","count":15717,"tles":[{"name":"ASNARO-2","line1":"1 43152U 18007A   26086.42102987  .00002491  00000+0  11088-3 0  9992","line2":"2 43152  97.4023  94.6062 0001794  88.4101 271.7341 15.22390939454979","category":"Other"}]}